NORAD_CAT_ID,OBJECT_NAME,OBJECT_TYPE,EPOCH,MEAN_MOTION,ECCENTRICITY,INCLINATION,RA_OF_ASC_NODE,ARG_OF_PERICENTER,MEAN_ANOMALY,BSTAR,MEAN_MOTION_DOT,MEAN_MOTION_DDOT,TLE_LINE0,TLE_LINE1,TLE_LINE2,SEMIMAJOR_AXIS,PERIOD,APOGEE,PERIGEE,DECAYED
55396.0,STARLINK-5283,PAYLOAD,2024-03-28 07:51:34,14.98328639,0.0002811,70.0009,57.9198,261.8949,98.1891,6.4295e-05,6.74e-06,0.0,0 STARLINK-5283,1 55396U 23014F   24088.32747718  .00000674  00000-0  64295-4 0  9996,2 55396  70.0009  57.9198 0002811 261.8949  98.1891 14.98328639 65501,6950.197,96.107,574.016,570.108,0.0
55396.0,STARLINK-5283,PAYLOAD,2024-03-28 20:40:38,14.98336319,0.0002837,70.0012,56.5731,266.2423,93.8411,-4.3353e-05,-6.1e-06,0.0,0 STARLINK-5283,1 55396U 23014F   24088.86155467 -.00000610  00000-0 -43353-4 0  9993,2 55396  70.0012  56.5731 0002837 266.2423  93.8411 14.98336319 64645,6950.173,96.107,574.01,570.067,0.0
55396.0,STARLINK-5283,PAYLOAD,2024-03-28 22:16:46,14.98336427,0.000285,70.0011,56.4048,266.2855,93.7978,-3.6424e-05,-5.28e-06,0.0,0 STARLINK-5283,1 55396U 23014F   24088.92831407 -.00000528  00000-0 -36424-4 0  9994,2 55396  70.0011  56.4048 0002850 266.2855  93.7978 14.98336427 65590,6950.173,96.107,574.019,570.057,0.0
55396.0,STARLINK-5283,PAYLOAD,2024-03-29 07:53:34,14.98328303,0.000271,70.0012,55.3951,263.9783,96.1068,0.00015223,1.724e-05,0.0,0 STARLINK-5283,1 55396U 23014F   24089.32887280  .00001724  00000-0  15223-3 0  9999,2 55396  70.0012  55.3951 0002710 263.9783  96.1068 14.98328303 65659,6950.198,96.107,573.947,570.18,0.0
55396.0,STARLINK-5283,PAYLOAD,2024-03-29 22:18:47,14.98329281,0.0002772,70.0013,53.88,267.855,92.2292,-2.25e-06,-1.2e-06,0.0,0 STARLINK-5283,1 55396U 23014F   24089.92971391 -.00000120  00000-0 -22500-5 0  9991,2 55396  70.0013  53.8800 0002772 267.8550  92.2292 14.98329281 65741,6950.195,96.107,573.987,570.134,0.0
55396.0,STARLINK-5283,PAYLOAD,2024-03-30 04:43:19,14.98330735,0.0002694,70.0015,53.2079,265.5554,94.5298,1.8274e-05,1.25e-06,0.0,0 STARLINK-5283,1 55396U 23014F   24090.19675231  .00000125  00000-0  18274-4 0  9991,2 55396  70.0015  53.2079 0002694 265.5554  94.5298 14.98330735 64844,6950.191,96.107,573.928,570.183,0.0
55396.0,STARLINK-5283,PAYLOAD,2024-03-30 14:20:07,14.98329585,0.0002668,70.0018,52.1973,267.0166,93.0688,-8.6841e-06,-1.97e-06,0.0,0 STARLINK-5283,1 55396U 23014F   24090.59731330 -.00000197  00000-0 -86841-5 0  9995,2 55396  70.0018  52.1973 0002668 267.0166  93.0688 14.98329585 65844,6950.194,96.107,573.913,570.205,0.0
55396.0,STARLINK-5283,PAYLOAD,2024-03-30 22:20:48,14.98331486,0.0002566,70.0019,51.3556,267.2702,92.8163,-1.7871e-06,-1.14e-06,0.0,0 STARLINK-5283,1 55396U 23014F   24090.93111186 -.00000114  00000-0 -17871-5 0  9990,2 55396  70.0019  51.3556 0002566 267.2702  92.8163 14.98331486 65891,6950.188,96.107,573.837,570.27,0.0
55396.0,STARLINK-5283,PAYLOAD,2024-03-31 04:45:20,14.98332335,0.000292,70.0006,50.6825,262.8267,97.256,1.4109e-05,7.5e-07,0.0,0 STARLINK-5283,1 55396U 23014F   24091.19815007  .00000075  00000-0  14109-4 0  9996,2 55396  70.0006  50.6825 0002920 262.8267  97.2560 14.98332335 64993,6950.186,96.107,574.08,570.021,0.0
55396.0,STARLINK-5283,PAYLOAD,2024-03-31 14:22:08,14.98338606,0.0002918,70.0005,49.6725,267.9464,92.1361,-3.1201e-05,-4.65e-06,0.0,0 STARLINK-5283,1 55396U 23014F   24091.59870590 -.00000465  00000-0 -31201-4 0  9995,2 55396  70.0005  49.6725 0002918 267.9464  92.1361 14.98338606 65992,6950.166,96.106,574.059,570.003,0.0
55396.0,STARLINK-5283,PAYLOAD,2024-03-31 22:22:48,14.98331538,0.0003004,70.0004,48.8308,268.0546,92.0269,-2.3935e-05,-3.79e-06,0.0,0 STARLINK-5283,1 55396U 23014F   24091.93251048 -.00000379  00000-0 -23935-4 0  9993,2 55396  70.0004  48.8308 0003004 268.0546  92.0269 14.98331538 66049,6950.188,96.107,574.141,569.965,0.0
55396.0,STARLINK-5283,PAYLOAD,2024-04-01 04:47:20,14.98336012,0.0002813,70.0005,48.1575,260.1366,99.9476,4.1408e-05,4.01e-06,0.0,0 STARLINK-5283,1 55396U 23014F   24092.19954501  .00000401  00000-0  41408-4 0  9995,2 55396  70.0005  48.1575 0002813 260.1366  99.9476 14.98336012 65147,6950.174,96.107,573.994,570.084,0.0
55396.0,STARLINK-5283,PAYLOAD,2024-04-01 14:24:09,14.9833633,0.0002849,70.0005,47.1475,277.2918,82.7917,-3.8529e-05,-5.53e-06,0.0,0 STARLINK-5283,1 55396U 23014F   24092.60010630 -.00000553  00000-0 -38529-4 0  9997,2 55396  70.0005  47.1475 0002849 277.2918  82.7917 14.98336330 66140,6950.173,96.107,574.018,570.058,0.0
55396.0,STARLINK-5283,PAYLOAD,2024-04-01 20:48:42,14.98320546,0.0003,70.0005,46.4743,268.9237,91.1578,-3.2404e-05,-4.8e-06,0.0,0 STARLINK-5283,1 55396U 23014F   24092.86715575 -.00000480  00000-0 -32404-4 0  9990,2 55396  70.0005  46.4743 0003000 268.9237  91.1578 14.98320546 65240,6950.222,96.108,574.172,570.002,0.0
55396.0,STARLINK-5283,PAYLOAD,2024-04-02 04:49:22,14.98329128,0.0003006,70.0005,45.6328,269.4073,90.6741,-1.0931e-05,-2.23e-06,0.0,0 STARLINK-5283,1 55396U 23014F   24093.20095077 -.00000223  00000-0 -10931-4 0  9993,2 55396  70.0005  45.6328 0003006 269.4073  90.6741 14.98329128 65296,6950.196,96.107,574.15,569.971,0.0
55396.0,STARLINK-5283,PAYLOAD,2024-04-02 14:26:10,14.98329847,0.0003017,70.0006,44.6229,269.6732,90.4081,-6.1746e-05,-8.3e-06,0.0,0 STARLINK-5283,1 55396U 23014F   24093.60151113 -.00000830  00000-0 -61746-4 0  9995,2 55396  70.0006  44.6229 0003017 269.6732  90.4081 14.98329847 66296,6950.193,96.107,574.155,569.961,0.0
55396.0,STARLINK-5283,PAYLOAD,2024-04-02 22:26:51,14.98324721,0.0003037,70.0006,43.7813,269.3794,90.7017,2.1997e-06,-6.7e-07,0.0,0 STARLINK-5283,1 55396U 23014F   24093.93531373 -.00000067  00000-0  21997-5 0  9997,2 55396  70.0006  43.7813 0003037 269.3794  90.7017 14.98324721 66346,6950.209,96.107,574.185,569.963,0.0
55396.0,STARLINK-5283,PAYLOAD,2024-04-03 04:51:23,14.9833036,0.0003036,70.0006,43.1079,268.9724,91.1087,1.5025e-05,8.6e-07,0.0,0 STARLINK-5283,1 55396U 23014F   24094.20235009  .00000086  00000-0  15025-4 0  9999,2 55396  70.0006  43.1079 0003036 268.9724  91.1087 14.98330360 65449,6950.192,96.107,574.167,569.947,0.0
55396.0,STARLINK-5283,PAYLOAD,2024-04-03 14:28:11,14.98332358,0.0003036,70.0006,42.0981,268.3939,91.6872,-6.1451e-05,-8.26e-06,0.0,0 STARLINK-5283,1 55396U 23014F   24094.60290980 -.00000826  00000-0 -61451-4 0  9990,2 55396  70.0006  42.0981 0003036 268.3939  91.6872 14.98332358 66448,6950.186,96.107,574.161,569.941,0.0
55396.0,STARLINK-5283,PAYLOAD,2024-04-03 20:52:42,14.98371996,0.0003283,70.0006,41.4248,268.2284,91.8499,-0.00078039,-9.402e-05,0.0,0 STARLINK-5283,1 55396U 23014F   24094.86993891 -.00009402  00000-0 -78039-3 0  9997,2 55396  70.0006  41.4248 0003283 268.2284  91.8499 14.98371996 65541,6950.063,96.104,574.21,569.646,0.0
55396.0,STARLINK-5283,PAYLOAD,2024-04-03 22:28:51,14.98322386,0.000304,70.0006,41.2565,268.8363,91.2447,0.00010486,1.158e-05,0.0,0 STARLINK-5283,1 55396U 23014F   24094.93671244  .00001158  00000-0  10486-3 0  9990,2 55396  70.0006  41.2565 0003040 268.8363  91.2447 14.98322386 66497,6950.216,96.107,574.194,569.969,0.0
55396.0,STARLINK-5283,PAYLOAD,2024-04-04 04:53:23,14.98329515,0.0003009,70.0007,40.5833,268.6711,91.4103,9.0442e-05,9.86e-06,0.0,0 STARLINK-5283,1 55396U 23014F   24095.20374872  .00000986  00000-0  90442-4 0  9997,2 55396  70.0007  40.5833 0003009 268.6711  91.4103 14.98329515 65590,6950.194,96.107,574.151,569.968,0.0
55396.0,STARLINK-5283,PAYLOAD,2024-04-04 14:30:12,14.98328736,0.0002985,70.0007,39.5733,269.3354,90.7463,-2.4249e-05,-3.82e-06,0.0,0 STARLINK-5283,1 55396U 23014F   24095.60431172 -.00000382  00000-0 -24249-4 0  9992,2 55396  70.0007  39.5733 0002985 269.3354  90.7463 14.98328736 66596,6950.197,96.107,574.136,569.987,0.0
55396.0,STARLINK-5283,PAYLOAD,2024-04-04 22:30:52,14.98327799,0.0002985,70.0007,38.7317,268.5867,91.495,7.1229e-05,7.57e-06,0.0,0 STARLINK-5283,1 55396U 23014F   24095.93811024  .00000757  00000-0  71229-4 0  9990,2 55396  70.0007  38.7317 0002985 268.5867  91.4950 14.98327799 66648,6950.2,96.107,574.139,569.99,0.0
55396.0,STARLINK-5283,PAYLOAD,2024-04-05 04:55:24,14.98335429,0.0002975,70.0008,38.0584,268.8481,91.2337,0.00010066,1.108e-05,0.0,0 STARLINK-5283,1 55396U 23014F   24096.20514418  .00001108  00000-0  10066-3 0  9990,2 55396  70.0008  38.0584 0002975 268.8481  91.2337 14.98335429 65748,6950.176,96.107,574.109,569.973,0.0
55396.0,STARLINK-5283,PAYLOAD,2024-04-05 14:32:13,14.98332553,0.0002974,70.0008,37.0485,269.262,90.8198,-3.6389e-06,-1.36e-06,0.0,0 STARLINK-5283,1 55396U 23014F   24096.60570720 -.00000136  00000-0 -36389-5 0  9992,2 55396  70.0008  37.0485 0002974 269.2620  90.8198 14.98332553 66742,6950.185,96.107,574.117,569.983,0.0
55396.0,STARLINK-5283,PAYLOAD,2024-04-05 20:56:45,14.98329221,0.0002974,70.0008,36.3754,268.9065,91.1754,-7.1933e-05,-9.51e-06,0.0,0 STARLINK-5283,1 55396U 23014F   24096.87275089 -.00000951  00000-0 -71933-4 0  9999,2 55396  70.0008  36.3754 0002974 268.9065  91.1754 14.98329221 65842,6950.195,96.107,574.127,569.993,0.0
55396.0,STARLINK-5283,PAYLOAD,2024-04-05 22:32:53,14.98327182,0.0002971,70.0008,36.2071,268.7338,91.348,2.8462e-05,2.47e-06,0.0,0 STARLINK-5283,1 55396U 23014F   24096.93950986  .00000247  00000-0  28462-4 0  9997,2 55396  70.0008  36.2071 0002971 268.7338  91.3480 14.98327182 66798,6950.202,96.107,574.132,570.002,0.0
55396.0,STARLINK-5283,PAYLOAD,2024-04-06 12:58:06,14.98329418,0.0002948,70.0009,34.6921,268.3691,91.7131,-6.059e-05,-8.16e-06,0.0,0 STARLINK-5283,1 55396U 23014F   24097.54034986 -.00000816  00000-0 -60590-4 0  9990,2 55396  70.0009  34.6921 0002948 268.3691  91.7131 14.98329418 66888,6950.195,96.107,574.109,570.011,0.0
55396.0,STARLINK-5283,PAYLOAD,2024-04-06 22:34:54,14.98324434,0.0002938,70.0009,33.6823,268.1621,91.9202,-3.9321e-05,-5.62e-06,0.0,0 STARLINK-5283,1 55396U 23014F   24097.94091296 -.00000562  00000-0 -39321-4 0  9997,2 55396  70.0009  33.6823 0002938 268.1621  91.9202 14.98324434 66949,6950.21,96.107,574.117,570.033,0.0
